{"type": "FeatureCollection", "features": [ {"type": "Feature", "properties": {"norad_id": 33867, "name": "IRIDIUM 33 DEB", "group": "iridium-33-debris", "lat": 20.891570299405025, "lon": 174.64925650228443, "alt_km": 407.0001030180638, "timestamp": "2025-12-01T03:58:49.183669+00:00", "meta": {"OBJECT_NAME": "IRIDIUM 33 DEB", "OBJECT_ID": "1997-051AL", "EPOCH": "2025-11-30T19:33:34.621056", "MEAN_MOTION": 15.51563057, "ECCENTRICITY": 0.0011643, "INCLINATION": 86.3635, "RA_OF_ASC_NODE": 356.2181, "ARG_OF_PERICENTER": 104.9497, "MEAN_ANOMALY": 255.3053, "EPHEMERIS_TYPE": 0, "CLASSIFICATION_TYPE": "U", "NORAD_CAT_ID": 33867, "ELEMENT_SET_NO": 999, "REV_AT_EPOCH": 89325, "BSTAR": 0.0065405, "MEAN_MOTION_DOT": 0.00407496, "MEAN_MOTION_DDOT": 0, "GROUP": "iridium-33-debris"}, "tle": {"line1": "1 33867U 97051AL  25334.81498404  .00407496  00000+0  65405-2 0  9995", "line2": "2 33867  86.3635 356.2181 0011643 104.9497 255.3053 15.51563057893253"}}, "geometry": {"type": "Point", "coordinates": [174.64925650228443, 20.891570299405025]}}, {"type": "Feature", "properties": {"norad_id": 33870, "name": "IRIDIUM 33 DEB", "group": "iridium-33-debris", "lat": -63.94539043375796, "lon": -109.32971599689985, "alt_km": 734.0861903188306, "timestamp": "2025-12-01T03:58:49.183682+00:00", "meta": {"OBJECT_NAME": "IRIDIUM 33 DEB", "OBJECT_ID": "1997-051AP", "EPOCH": "2025-11-30T07:11:54.566304", "MEAN_MOTION": 14.45737102, "ECCENTRICITY": 0.00201779, "INCLINATION": 86.3751, "RA_OF_ASC_NODE": 63.5913, "ARG_OF_PERICENTER": 219.9523, "MEAN_ANOMALY": 200.1752, "EPHEMERIS_TYPE": 0, "CLASSIFICATION_TYPE": "U", "NORAD_CAT_ID": 33870, "ELEMENT_SET_NO": 999, "REV_AT_EPOCH": 87957, "BSTAR": 0.00092179021, "MEAN_MOTION_DOT": 3.291e-05, "MEAN_MOTION_DDOT": 0, "GROUP": "iridium-33-debris"}, "tle": {"line1": "1 33870U 97051AP  25334.29993711  .00003291  00000+0  92179-3 0  9996", "line2": "2 33870  86.3751  63.5913 0020177 219.9523 200.1752 14.45737102879575"}}, "geometry": {"type": "Point", "coordinates": [-109.32971599689985, -63.94539043375796]}}, {"type": "Feature", "properties": {"norad_id": 33881, "name": "IRIDIUM 33 DEB", "group": "iridium-33-debris", "lat": 30.885303031892914, "lon": 113.9349386764917, "alt_km": 746.9396797927593, "timestamp": "2025-12-01T03:58:49.183694+00:00", "meta": {"OBJECT_NAME": "IRIDIUM 33 DEB", "OBJECT_ID": "1997-051BA", "EPOCH": "2025-11-30T20:17:53.701152", "MEAN_MOTION": 14.56233638, "ECCENTRICITY": 0.006095, "INCLINATION": 86.3869, "RA_OF_ASC_NODE": 111.908, "ARG_OF_PERICENTER": 213.3225, "MEAN_ANOMALY": 300.7584, "EPHEMERIS_TYPE": 0, "CLASSIFICATION_TYPE": "U", "NORAD_CAT_ID": 33881, "ELEMENT_SET_NO": 999, "REV_AT_EPOCH": 87327, "BSTAR": 0.0018142, "MEAN_MOTION_DOT": 8.249e-05, "MEAN_MOTION_DDOT": 0, "GROUP": "iridium-33-debris"}, "tle": {"line1": "1 33881U 97051BA  25334.84576043  .00008249  00000+0  18142-2 0  9999", "line2": "2 33881  86.3869 111.9080 0060950 213.3225 300.7584 14.56233638873278"}}, "geometry": {"type": "Point", "coordinates": [113.9349386764917, 30.885303031892914]}}, {"type": "Feature", "properties": {"norad_id": 33884, "name": "IRIDIUM 33 DEB", "group": "iridium-33-debris", "lat": -10.358210802021036, "lon": -164.2935293028932, "alt_km": 650.6182676268008, "timestamp": "2025-12-01T03:58:49.183704+00:00", "meta": {"OBJECT_NAME": "IRIDIUM 33 DEB", "OBJECT_ID": "1997-051BD", "EPOCH": "2025-11-30T14:40:42.860352", "MEAN_MOTION": 14.77072324, "ECCENTRICITY": 0.0011027, "INCLINATION": 86.3702, "RA_OF_ASC_NODE": 15.2916, "ARG_OF_PERICENTER": 7.7393, "MEAN_ANOMALY": 117.3051, "EPHEMERIS_TYPE": 0, "CLASSIFICATION_TYPE": "U", "NORAD_CAT_ID": 33884, "ELEMENT_SET_NO": 999, "REV_AT_EPOCH": 88668, "BSTAR": 0.0013709, "MEAN_MOTION_DOT": 9.713e-05, "MEAN_MOTION_DDOT": 0, "GROUP": "iridium-33-debris"}, "tle": {"line1": "1 33884U 97051BD  25334.61160718  .00009713  00000+0  13709-2 0  9996", "line2": "2 33884  86.3702  15.2916 0011027   7.7393 117.3051 14.77072324886689"}}, "geometry": {"type": "Point", "coordinates": [-164.2935293028932, -10.358210802021036]}}, {"type": "Feature", "properties": {"norad_id": 33886, "name": "IRIDIUM 33 DEB", "group": "iridium-33-debris", "lat": 30.647831581743908, "lon": 74.24738503773466, "alt_km": 772.2536281350503, "timestamp": "2025-12-01T03:58:49.183717+00:00", "meta": {"OBJECT_NAME": "IRIDIUM 33 DEB", "OBJECT_ID": "1997-051BF", "EPOCH": "2025-11-30T18:34:48.516960", "MEAN_MOTION": 14.36027403, "ECCENTRICITY": 0.0012047, "INCLINATION": 86.3832, "RA_OF_ASC_NODE": 72.2644, "ARG_OF_PERICENTER": 287.5048, "MEAN_ANOMALY": 239.6175, "EPHEMERIS_TYPE": 0, "CLASSIFICATION_TYPE": "U", "NORAD_CAT_ID": 33886, "ELEMENT_SET_NO": 999, "REV_AT_EPOCH": 87880, "BSTAR": 0.00021687, "MEAN_MOTION_DOT": 6.5e-06, "MEAN_MOTION_DDOT": 0, "GROUP": "iridium-33-debris"}, "tle": {"line1": "1 33886U 97051BF  25334.77417265  .00000650  00000+0  21687-3 0  9993", "line2": "2 33886  86.3832  72.2644 0012047 287.5048 239.6175 14.36027403878807"}}, "geometry": {"type": "Point", "coordinates": [74.24738503773466, 30.647831581743908]}}, {"type": "Feature", "properties": {"norad_id": 33887, "name": "IRIDIUM 33 DEB", "group": "iridium-33-debris", "lat": -81.09290274676712, "lon": -15.968791196832743, "alt_km": 772.3094304647475, "timestamp": "2025-12-01T03:58:49.183728+00:00", "meta": {"OBJECT_NAME": "IRIDIUM 33 DEB", "OBJECT_ID": "1997-051BG", "EPOCH": "2025-11-30T20:51:26.987040", "MEAN_MOTION": 14.37203854, "ECCENTRICITY": 0.0004054, "INCLINATION": 86.3054, "RA_OF_ASC_NODE": 8.5074, "ARG_OF_PERICENTER": 283.9291, "MEAN_ANOMALY": 259.6304, "EPHEMERIS_TYPE": 0, "CLASSIFICATION_TYPE": "U", "NORAD_CAT_ID": 33887, "ELEMENT_SET_NO": 999, "REV_AT_EPOCH": 87994, "BSTAR": 0.00014954, "MEAN_MOTION_DOT": 4.65e-06, "MEAN_MOTION_DDOT": 0, "GROUP": "iridium-33-debris"}, "tle": {"line1": "1 33887U 97051BG  25334.86906235  .00000465  00000+0  14954-3 0  9997", "line2": "2 33887  86.3054   8.5074 0004054 283.9291 259.6304 14.37203854879941"}}, "geometry": {"type": "Point", "coordinates": [-15.968791196832743, -81.09290274676712]}}, {"type": "Feature", "properties": {"norad_id": 33953, "name": "IRIDIUM 33 DEB", "group": "iridium-33-debris", "lat": 75.53838588461632, "lon": -135.3883753785296, "alt_km": 691.0752592217996, "timestamp": "2025-12-01T03:58:49.183738+00:00", "meta": {"OBJECT_NAME": "IRIDIUM 33 DEB", "OBJECT_ID": "1997-051BN", "EPOCH": "2025-11-30T18:11:46.782240", "MEAN_MOTION": 14.55120869, "ECCENTRICITY": 0.0018407, "INCLINATION": 86.385, "RA_OF_ASC_NODE": 58.9778, "ARG_OF_PERICENTER": 139.4821, "MEAN_ANOMALY": 350.458, "EPHEMERIS_TYPE": 0, "CLASSIFICATION_TYPE": "U", "NORAD_CAT_ID": 33953, "ELEMENT_SET_NO": 999, "REV_AT_EPOCH": 88129, "BSTAR": 0.001295, "MEAN_MOTION_DOT": 5.623e-05, "MEAN_MOTION_DDOT": 0, "GROUP": "iridium-33-debris"}, "tle": {"line1": "1 33953U 97051BN  25334.75818035  .00005623  00000+0  12950-2 0  9993", "line2": "2 33953  86.3850  58.9778 0018407 139.4821 350.4580 14.55120869881291"}}, "geometry": {"type": "Point", "coordinates": [-135.3883753785296, 75.53838588461632]}}, {"type": "Feature", "properties": {"norad_id": 33960, "name": "IRIDIUM 33 DEB", "group": "iridium-33-debris", "lat": 57.75322595101064, "lon": 109.00354970618079, "alt_km": 607.1386843998334, "timestamp": "2025-12-01T03:58:49.183748+00:00", "meta": {"OBJECT_NAME": "IRIDIUM 33 DEB", "OBJECT_ID": "1997-051BV", "EPOCH": "2025-11-30T15:17:05.433216", "MEAN_MOTION": 14.84193351, "ECCENTRICITY": 0.0006931, "INCLINATION": 86.2524, "RA_OF_ASC_NODE": 295.2162, "ARG_OF_PERICENTER": 78.9046, "MEAN_ANOMALY": 98.4879, "EPHEMERIS_TYPE": 0, "CLASSIFICATION_TYPE": "U", "NORAD_CAT_ID": 33960, "ELEMENT_SET_NO": 999, "REV_AT_EPOCH": 88687, "BSTAR": 0.003191, "MEAN_MOTION_DOT": 0.0002679, "MEAN_MOTION_DDOT": 0, "GROUP": "iridium-33-debris"}, "tle": {"line1": "1 33960U 97051BV  25334.63686844  .00026790  00000+0  31910-2 0  9994", "line2": "2 33960  86.2524 295.2162 0006931  78.9046  98.4879 14.84193351886871"}}, "geometry": {"type": "Point", "coordinates": [109.00354970618079, 57.75322595101064]}}, {"type": "Feature", "properties": {"norad_id": 33966, "name": "IRIDIUM 33 DEB", "group": "iridium-33-debris", "lat": 73.41700320813254, "lon": -141.2352192507406, "alt_km": 722.8035083397053, "timestamp": "2025-12-01T03:58:49.183759+00:00", "meta": {"OBJECT_NAME": "IRIDIUM 33 DEB", "OBJECT_ID": "1997-051CB", "EPOCH": "2025-11-30T18:07:54.208128", "MEAN_MOTION": 14.49510334, "ECCENTRICITY": 0.0006145, "INCLINATION": 86.3933, "RA_OF_ASC_NODE": 51.1689, "ARG_OF_PERICENTER": 232.5099, "MEAN_ANOMALY": 253.737, "EPHEMERIS_TYPE": 0, "CLASSIFICATION_TYPE": "U", "NORAD_CAT_ID": 33966, "ELEMENT_SET_NO": 999, "REV_AT_EPOCH": 88268, "BSTAR": 0.00059001, "MEAN_MOTION_DOT": 2.28e-05, "MEAN_MOTION_DDOT": 0, "GROUP": "iridium-33-debris"}, "tle": {"line1": "1 33966U 97051CB  25334.75548852  .00002280  00000+0  59001-3 0  9999", "line2": "2 33966  86.3933  51.1689 0006145 232.5099 253.7370 14.49510334882680"}}, "geometry": {"type": "Point", "coordinates": [-141.2352192507406, 73.41700320813254]}}]}